{"type": "FeatureCollection", "features": [ {"type": "Feature", "properties": {"norad_id": 59598, "name": "GSAT0225 (GALILEO 29)", "group": "gnss", "lat": 54.85038873933161, "lon": -170.2698780508235, "alt_km": 23216.340899253155, "timestamp": "2025-12-18T07:01:54.833076+00:00", "meta": {"OBJECT_NAME": "GSAT0225 (GALILEO 29)", "OBJECT_ID": "2024-079A", "EPOCH": "2025-12-16T09:22:38.225280", "MEAN_MOTION": 1.70475011, "ECCENTRICITY": 0.00021396, "INCLINATION": 55.0038, "RA_OF_ASC_NODE": 106.1932, "ARG_OF_PERICENTER": 182.0305, "MEAN_ANOMALY": 176.7742, "EPHEMERIS_TYPE": 0, "CLASSIFICATION_TYPE": "U", "NORAD_CAT_ID": 59598, "ELEMENT_SET_NO": 999, "REV_AT_EPOCH": 1019, "BSTAR": 0, "MEAN_MOTION_DOT": -1e-07, "MEAN_MOTION_DDOT": 0}, "tle": {"line1": "1 59598U 24079A   25350.39072020 -.00000010  00000+0  00000+0 0  9996", "line2": "2 59598  55.0038 106.1932 0002139 182.0305 176.7742  1.70475011 10196"}}, "geometry": {"type": "Point", "coordinates": [-170.2698780508235, 54.85038873933161]}}, {"type": "Feature", "properties": {"norad_id": 59600, "name": "GSAT0227 (GALILEO 30)", "group": "gnss", "lat": -21.235650547911607, "lon": 90.34724293510612, "alt_km": 23231.97951783844, "timestamp": "2025-12-18T07:01:54.833088+00:00", "meta": {"OBJECT_NAME": "GSAT0227 (GALILEO 30)", "OBJECT_ID": "2024-079C", "EPOCH": "2025-12-17T17:58:49.656576", "MEAN_MOTION": 1.70474875, "ECCENTRICITY": 0.00029873, "INCLINATION": 54.9997, "RA_OF_ASC_NODE": 106.1542, "ARG_OF_PERICENTER": 116.3364, "MEAN_ANOMALY": 243.6531, "EPHEMERIS_TYPE": 0, "CLASSIFICATION_TYPE": "U", "NORAD_CAT_ID": 59600, "ELEMENT_SET_NO": 999, "REV_AT_EPOCH": 1027, "BSTAR": 0, "MEAN_MOTION_DOT": -9e-08, "MEAN_MOTION_DDOT": 0}, "tle": {"line1": "1 59600U 24079C   25351.74918584 -.00000009  00000+0  00000+0 0  9992", "line2": "2 59600  54.9997 106.1542 0002987 116.3364 243.6531  1.70474875 10271"}}, "geometry": {"type": "Point", "coordinates": [90.34724293510612, -21.235650547911607]}}, {"type": "Feature", "properties": {"norad_id": 61182, "name": "GSAT0232 (GALILEO 32)", "group": "gnss", "lat": 9.68906678071894, "lon": 39.4859609006888, "alt_km": 23217.078170378838, "timestamp": "2025-12-18T07:01:54.833099+00:00", "meta": {"OBJECT_NAME": "GSAT0232 (GALILEO 32)", "OBJECT_ID": "2024-167A", "EPOCH": "2025-12-15T09:09:10.050912", "MEAN_MOTION": 1.70473627, "ECCENTRICITY": 0.00018812, "INCLINATION": 55.2399, "RA_OF_ASC_NODE": 226.3583, "ARG_OF_PERICENTER": 210.2547, "MEAN_ANOMALY": 331.0661, "EPHEMERIS_TYPE": 0, "CLASSIFICATION_TYPE": "U", "NORAD_CAT_ID": 61182, "ELEMENT_SET_NO": 999, "REV_AT_EPOCH": 774, "BSTAR": 0, "MEAN_MOTION_DOT": 4.1e-07, "MEAN_MOTION_DDOT": 0}, "tle": {"line1": "1 61182U 24167A   25349.38136633  .00000041  00000+0  00000+0 0  9997", "line2": "2 61182  55.2399 226.3583 0001881 210.2547 331.0661  1.70473627  7746"}}, "geometry": {"type": "Point", "coordinates": [39.4859609006888, 9.68906678071894]}}, {"type": "Feature", "properties": {"norad_id": 61183, "name": "GSAT0226 (GALILEO 31)", "group": "gnss", "lat": -53.79813005129947, "lon": 154.83680472665822, "alt_km": 23230.477415815432, "timestamp": "2025-12-18T07:01:54.833110+00:00", "meta": {"OBJECT_NAME": "GSAT0226 (GALILEO 31)", "OBJECT_ID": "2024-167B", "EPOCH": "2025-12-12T20:26:08.685024", "MEAN_MOTION": 1.70473602, "ECCENTRICITY": 8.42e-05, "INCLINATION": 55.2391, "RA_OF_ASC_NODE": 226.433, "ARG_OF_PERICENTER": 113.0334, "MEAN_ANOMALY": 68.3038, "EPHEMERIS_TYPE": 0, "CLASSIFICATION_TYPE": "U", "NORAD_CAT_ID": 61183, "ELEMENT_SET_NO": 999, "REV_AT_EPOCH": 767, "BSTAR": 0, "MEAN_MOTION_DOT": 1.9e-07, "MEAN_MOTION_DDOT": 0}, "tle": {"line1": "1 61183U 24167B   25346.85148941  .00000019  00000+0  00000+0 0  9997", "line2": "2 61183  55.2391 226.4330 0000842 113.0334  68.3038  1.70473602  7673"}}, "geometry": {"type": "Point", "coordinates": [154.83680472665822, -53.79813005129947]}}, {"type": "Feature", "properties": {"norad_id": 61186, "name": "BEIDOU-3 M25 (C47)", "group": "gnss", "lat": -30.12730461620197, "lon": 152.82051263918896, "alt_km": 21529.546580567283, "timestamp": "2025-12-18T07:01:54.833124+00:00", "meta": {"OBJECT_NAME": "BEIDOU-3 M25 (C47)", "OBJECT_ID": "2024-168B", "EPOCH": "2025-12-17T10:14:26.230272", "MEAN_MOTION": 1.86230291, "ECCENTRICITY": 0.00054394, "INCLINATION": 54.6378, "RA_OF_ASC_NODE": 308.5577, "ARG_OF_PERICENTER": 298.8835, "MEAN_ANOMALY": 58.2936, "EPHEMERIS_TYPE": 0, "CLASSIFICATION_TYPE": "U", "NORAD_CAT_ID": 61186, "ELEMENT_SET_NO": 999, "REV_AT_EPOCH": 839, "BSTAR": 0, "MEAN_MOTION_DOT": -9.1e-07, "MEAN_MOTION_DDOT": 0}, "tle": {"line1": "1 61186U 24168B   25351.42669248 -.00000091  00000+0  00000+0 0  9999", "line2": "2 61186  54.6378 308.5577 0005439 298.8835  58.2936  1.86230291  8391"}}, "geometry": {"type": "Point", "coordinates": [152.82051263918896, -30.12730461620197]}}, {"type": "Feature", "properties": {"norad_id": 61187, "name": "BEIDOU-3 M27 (C49)", "group": "gnss", "lat": -5.741504373451826, "lon": -55.6045553259575, "alt_km": 21522.362040790373, "timestamp": "2025-12-18T07:01:54.833138+00:00", "meta": {"OBJECT_NAME": "BEIDOU-3 M27 (C49)", "OBJECT_ID": "2024-168C", "EPOCH": "2025-12-17T09:44:22.026336", "MEAN_MOTION": 1.86230445, "ECCENTRICITY": 0.00024936, "INCLINATION": 54.6333, "RA_OF_ASC_NODE": 308.542, "ARG_OF_PERICENTER": 338.9889, "MEAN_ANOMALY": 139.133, "EPHEMERIS_TYPE": 0, "CLASSIFICATION_TYPE": "U", "NORAD_CAT_ID": 61187, "ELEMENT_SET_NO": 999, "REV_AT_EPOCH": 587, "BSTAR": 0, "MEAN_MOTION_DOT": -9.1e-07, "MEAN_MOTION_DDOT": 0}, "tle": {"line1": "1 61187U 24168C   25351.40581049 -.00000091  00000+0  00000+0 0  9990", "line2": "2 61187  54.6333 308.5420 0002493 338.9889 139.1330  1.86230445  5870"}}, "geometry": {"type": "Point", "coordinates": [-55.6045553259575, -5.741504373451826]}}, {"type": "Feature", "properties": {"norad_id": 62339, "name": "GPS BIII-7  (PRN 01)", "group": "gnss", "lat": -38.58925037862803, "lon": -52.59846607849584, "alt_km": 20159.350504071772, "timestamp": "2025-12-18T07:01:54.833149+00:00", "meta": {"OBJECT_NAME": "GPS BIII-7  (PRN 01)", "OBJECT_ID": "2024-242A", "EPOCH": "2025-12-17T08:48:19.475712", "MEAN_MOTION": 2.00568159, "ECCENTRICITY": 0.00124883, "INCLINATION": 54.9223, "RA_OF_ASC_NODE": 341.5527, "ARG_OF_PERICENTER": 345.5623, "MEAN_ANOMALY": 16.1455, "EPHEMERIS_TYPE": 0, "CLASSIFICATION_TYPE": "U", "NORAD_CAT_ID": 62339, "ELEMENT_SET_NO": 999, "REV_AT_EPOCH": 761, "BSTAR": 0, "MEAN_MOTION_DOT": -8.8e-07, "MEAN_MOTION_DDOT": 0}, "tle": {"line1": "1 62339U 24242A   25351.36689208 -.00000088  00000+0  00000+0 0  9990", "line2": "2 62339  54.9223 341.5527 0012488 345.5623  16.1455  2.00568159  7610"}}, "geometry": {"type": "Point", "coordinates": [-52.59846607849584, -38.58925037862803]}}, {"type": "Feature", "properties": {"norad_id": 62850, "name": "NVS-02 (IRNSS-1K)", "group": "gnss", "lat": -10.085469678053652, "lon": 173.2926411569126, "alt_km": 37220.597899938715, "timestamp": "2025-12-18T07:01:54.833161+00:00", "meta": {"OBJECT_NAME": "NVS-02 (IRNSS-1K)", "OBJECT_ID": "2025-020A", "EPOCH": "2025-12-17T14:28:10.646400", "MEAN_MOTION": 2.17599028, "ECCENTRICITY": 0.73474185, "INCLINATION": 20.971, "RA_OF_ASC_NODE": 325.8994, "ARG_OF_PERICENTER": 29.3877, "MEAN_ANOMALY": 356.8717, "EPHEMERIS_TYPE": 0, "CLASSIFICATION_TYPE": "U", "NORAD_CAT_ID": 62850, "ELEMENT_SET_NO": 999, "REV_AT_EPOCH": 702, "BSTAR": 0.00021657568, "MEAN_MOTION_DOT": 4.29e-06, "MEAN_MOTION_DDOT": 0}, "tle": {"line1": "1 62850U 25020A   25351.60290100  .00000429  00000+0  21658-3 0  9993", "line2": "2 62850  20.9710 325.8994 7347418  29.3877 356.8717  2.17599028  7021"}}, "geometry": {"type": "Point", "coordinates": [173.2926411569126, -10.085469678053652]}}, {"type": "Feature", "properties": {"norad_id": 62876, "name": "QZS-6 (QZSS/PRN 200)", "group": "gnss", "lat": -0.04396048394198372, "lon": -76.83897547617548, "alt_km": 35779.4090871867, "timestamp": "2025-12-18T07:01:54.833173+00:00", "meta": {"OBJECT_NAME": "QZS-6 (QZSS/PRN 200)", "OBJECT_ID": "2025-023A", "EPOCH": "2025-12-17T20:36:16.236864", "MEAN_MOTION": 1.00273314, "ECCENTRICITY": 0.00014959, "INCLINATION": 0.044, "RA_OF_ASC_NODE": 66.4098, "ARG_OF_PERICENTER": 210.103, "MEAN_ANOMALY": 209.8165, "EPHEMERIS_TYPE": 0, "CLASSIFICATION_TYPE": "U", "NORAD_CAT_ID": 62876, "ELEMENT_SET_NO": 999, "REV_AT_EPOCH": 314, "BSTAR": 0, "MEAN_MOTION_DOT": -2.09e-06, "MEAN_MOTION_DDOT": 0}, "tle": {"line1": "1 62876U 25023A   25351.85852126 -.00000209  00000+0  00000+0 0  9994", "line2": "2 62876   0.0440  66.4098 0001495 210.1030 209.8165  1.00273314  3148"}}, "geometry": {"type": "Point", "coordinates": [-76.83897547617548, -0.04396048394198372]}}, {"type": "Feature", "properties": {"norad_id": 63130, "name": "COSMOS 2584 (704K)", "group": "gnss", "lat": -35.224694486381445, "lon": -81.81403163219237, "alt_km": 19114.76534800179, "timestamp": "2025-12-18T07:01:54.833187+00:00", "meta": {"OBJECT_NAME": "COSMOS 2584 (704K)", "OBJECT_ID": "2025-042A", "EPOCH": "2025-12-14T17:19:43.603680", "MEAN_MOTION": 2.13103043, "ECCENTRICITY": 0.00076907, "INCLINATION": 64.977, "RA_OF_ASC_NODE": 79.0784, "ARG_OF_PERICENTER": 217.9412, "MEAN_ANOMALY": 142.0178, "EPHEMERIS_TYPE": 0, "CLASSIFICATION_TYPE": "U", "NORAD_CAT_ID": 63130, "ELEMENT_SET_NO": 999, "REV_AT_EPOCH": 611, "BSTAR": 0, "MEAN_MOTION_DOT": -5.6e-07, "MEAN_MOTION_DDOT": 0}, "tle": {"line1": "1 63130U 25042A   25348.72203245 -.00000056  00000+0  00000+0 0  9993", "line2": "2 63130  64.9770  79.0784 0007690 217.9412 142.0178  2.13103043  6119"}}, "geometry": {"type": "Point", "coordinates": [-81.81403163219237, -35.224694486381445]}}]}